COSMOS 2433 (720)       
1 32275C 07052A   22333.99979167  .00000000  00000-0  00000-0 0  3335
2 32275  66.0704 359.1766 0005206 251.2386 291.2664  2.13103823    15
COSMOS 2432 (719)       
1 32276C 07052B   22333.99979167  .00000000  00000-0  00000-0 0  3336
2 32276  66.0842 359.2804 0010947 314.5198 175.8186  2.13103033    14
COSMOS 2434 (721)       
1 32393C 07065A   22333.99979167  .00000000  00000-0  00000-0 0  3330
2 32393  64.3601 235.7804 0003418  70.7780   1.8551  2.13102942    11
COSMOS 2436 (723)       
1 32395C 07065C   22333.99979167  .00000000  00000-0  00000-0 0  3332
2 32395  64.3688 235.8392 0016477   2.6088 205.7592  2.13102528    15
COSMOS 2456 (730)       
1 36111C 09070A   22333.99979167 -.00000000  00000-0  00000-0 0  3331
2 36111  64.3998 115.3686 0001461 317.4298 278.4752  2.13098921    10
COSMOS 2457 (733)       
1 36112C 09070B   22333.99979167 -.00000000  00000-0  00000-0 0  3332
2 36112  64.3833 115.2405 0006761 154.5681 209.9385  2.13101201    18
COSMOS 2559 (707K)      
1 54031C 22130A   22333.99979167  .00000000  00000-0  00000-0 0  3333
2 54031  64.7785 359.8960 0007587 231.4202 213.5038  2.13101122    19
COSMOS 2460 (732)       
1 36402C 10007C   22333.99979167  .00000000  00000-0  00000-0 0  3335
2 36402  65.9390 357.9384 0002415 262.0205  87.7033  2.13106059    13
COSMOS 2476 (744)       
1 37867C 11064A   22333.99979167 -.00000000  00000-0  00000-0 0  3336
2 37867  64.6855 116.7891 0021266 230.5025 272.3092  2.13101567    16
COSMOS 2477 (745)       
1 37868C 11064B   22333.99979167 -.00000000  00000-0  00000-0 0  3337
2 37868  64.6931 116.8556 0018526 230.4491  90.3965  2.13101488    11
COSMOS 2475 (743)       
1 37869C 11064C   22333.99979167 -.00000000  00000-0  00000-0 0  3338
2 37869  64.7003 116.8653 0022127 249.9428  29.1000  2.13101682    14
COSMOS 2485 (747)       
1 39155C 13019A   22333.99979167 -.00000000  00000-0  00000-0 0  3330
2 39155  64.8481 117.2530 0021806 226.5153 320.6997  2.13101577    10
COSMOS 2492 (754)       
1 39620C 14012A   22333.99979167  .00000000  00000-0  00000-0 0  3330
2 39620  65.8245 357.5964 0014107 313.1496 268.3882  2.13102882    16
COSMOS 2500 (755)       
1 40001C 14032A   22333.99979167  .00000000  00000-0  00000-0 0  3337
2 40001  65.7636 357.4451 0008006 218.4139 221.3085  2.13102160    19
COSMOS 2501 (702K)      
1 40315C 14075A   22333.99979167  .00000000  00000-0  00000-0 0  3332
2 40315  63.6655 235.3791 0017531 207.9296  40.5985  2.13101004    12
COSMOS 2514 (751)       
1 41330C 16008A   22333.99979167  .00000000  00000-0  00000-0 0  3338
2 41330  65.5628 357.0959 0012040 221.2341  42.6244  2.13102379    16
COSMOS 2522 (752)       
1 42939C 17055A   22333.99979167  .00000000  00000-0  00000-0 0  3337
2 42939  64.1256 236.1453 0006556 245.1633 138.8995  2.13101886    17
COSMOS 2527 (756)       
1 43508C 18053A   22333.99979167 -.00000000  00000-0  00000-0 0  3330
2 43508  65.0105 117.2877 0007997 214.3806 201.7085  2.13102384    16
COSMOS 2529 (757)       
1 43687C 18086A   22333.99979167  .00000000  00000-0  00000-0 0  3333
2 43687  64.3407 236.5060 0008679 271.3080  68.2526  2.13101877    17
COSMOS 2534 (758)       
1 44299C 19030A   22333.99979167  .00000000  00000-0  00000-0 0  3333
2 44299  64.4129 236.4064 0011571 291.6760 182.2975  2.13101689    13
COSMOS 2544 (759)       
1 44850C 19088A   22333.99979167 -.00000000  00000-0  00000-0 0  3330
2 44850  64.9960 117.1364 0011278 249.2592 210.1567  2.13102115    11
COSMOS 2545 (760)       
1 45358C 20018A   22333.99979167  .00000000  00000-0  00000-0 0  3338
2 45358  64.9018 357.5683 0011604 249.9625  58.7257  2.13102312    11
COSMOS 2547 (705K)      
1 46805C 20075A   22333.99979167  .00000000  00000-0  00000-0 0  3339
2 46805  64.6383 235.8798 0006283 246.0325 276.1954  2.13102721    12
COSMOS 2557 (706K)      
1 52984C 20075A   22333.99979167  .00000000  00000-0  00000-0 0  3334
2 52984  64.8079 359.7585 0013766 279.5528 120.0245  2.13101535    13
